X,Y,Site,Address,City,State,Type,API,Org
567066.181811132,4177769.39902114,Amelia Earhart Elementary,400 Packet Landing Rd,Alameda,CA,ES,"933",Public
565917.668716956,4177120.51000009,Bay Farm Elementary,200 Aughinbaugh Way,Alameda,CA,ES,"932",Public
565275.382291332,4179673.90913196,Donald D. Lum Elementary,1801 Sandcreek Way,Alameda,CA,ES,"853",Public
567393.045753169,4180045.19768868,Edison Elementary,2700 Buena Vista Ave,Alameda,CA,ES,"927",Public
567118.089459402,4178790.63406838,Frank Otis Elementary,3010 Fillmore St,Alameda,CA,ES,"894",Public
565035.525594939,4180454.33527362,Franklin Elementary,1433 San Antonio Ave,Alameda,CA,ES,"893",Public
565957.939646752,4180504.5757358,Henry Haight Elementary,2025 Santa Clara Ave,Alameda,CA,ES,"821",Public
562860.754766073,4181858.40068169,Ruby Bridges Elementary,351 Jack London Ave,Alameda,CA,ES,"802",Public
564097.229977713,4180815.19044963,Washington Elementary,825 Taylor Ave,Alameda,CA,ES,"777",Public
563024.831653188,4180702.14180432,William G. Paden Elementary,444 Central Ave,Alameda,CA,ES,"844",Public
562892.209099014,4181265.91429662,Chipman Middle,401 Pacific Ave,Alameda,CA,MS,"740",Public
567566.855284755,4178556.80941284,Lincoln Middle,1250 Fernside,Alameda,CA,MS,"893",Public
565018.686883401,4179777.65270529,Will C. Wood Middle,420 Grand St,Alameda,CA,MS,"768",Public
562497.968391432,4180927.63425452,Alameda Community Learning Center,210 Central Ave,Alameda,CA,HS,"826",Public
566233.406744968,4179937.00696707,Alameda High,2201 Encinal Ave,Alameda,CA,HS,"812",Public
563355.794325988,4181645.6591747,Alameda Science and Technology Institute,555 Atlantic Ave,Alameda,CA,HS,"844",Public
562497.968391432,4180927.63425452,Encinal High,210 Central Ave,Alameda,CA,HS,"747",Public
562717.825713565,4181492.09524446,Bay Area School of Enterprise,1900 Third St,Alameda,CA,Small Schools,"0",Public
562879.597955067,4182398.3852302,Island High (Continuation),250 Singleton Ave,Alameda,CA,ASAM,"0",Public
563215.62734532,4181230.47196644,Nea Community Learning Center,500 Pacific Ave.,Alameda,CA,K-12,"0",Public
561462.434591705,4193564.74896683,Cornell Elementary,1000 Jackson Street,Albany,CA,ES,"901",Public
562600.324253217,4193687.11125875,Marin Elementary,1001 Santa Fe Avenue,Albany,CA,ES,"925",Public
561462.434591705,4193564.74896683,Ocean View Elementary,1000 Jackson Street,Albany,CA,ES,"917",Public
561965.359625672,4194724.07051714,Albany Middle,1259 Brighton Avenue,Albany,CA,MS,"881",Public
562206.800375876,4194584.20100388,Albany High,603 Key Route Boulevard,Albany,CA,HS,"806",Public
561294.78776836,4194198.14136225,MacGregor High (Continuation),720 Jackson Street,Albany,CA,ASAM,"0",Public
564121.975968428,4192360.71054805,Berkeley Arts Magnet at Whittier,2015 Virginia St,Berkeley,CA,ES,"829",Public
564375.47841917,4194326.520628,Cragmont Elementary,830 Regal Road,Berkeley,CA,ES,"843",Public
565882.527678348,4190703.2071793,Emerson Elementary,2800 Forest Ave,Berkeley,CA,ES,"842",Public
562866.348650176,4192615.43317084,Jefferson Elementary,1400 Ada Street,Berkeley,CA,ES,"864",Public
566342.003779354,4190234.91014807,John Muir Elementary,2955 Claremont Ave,Berkeley,CA,ES,"805",Public
564890.847129878,4190253.25103553,Leconte Elementary,2241 Russell Street,Berkeley,CA,ES,"748",Public
563890.567587753,4189673.62792924,Malcolm X Elementary,1731 Prince St,Berkeley,CA,ES,"834",Public
564323.162346183,4193636.57488384,Oxford Elementary,1130 Oxford Street,Berkeley,CA,ES,"875",Public
562038.357630104,4191134.2789538,Rosa Parks Environmental Science Magnet,920 Allston Way,Berkeley,CA,ES,"735",Public
563263.105509265,4194192.13177541,Thousand Oaks Elementary,840 Colusa,Berkeley,CA,ES,"824",Public
563995.948829782,4191308.34170405,Washington Elementary,2300 M L King Jr. Way,Berkeley,CA,ES,"811",Public
563336.072428373,4190371.83389236,Longfellow Arts and Technology Middle,1500 Derby Street,Berkeley,CA,MS,"784",Public
563577.733318528,4192879.36329103,Martin Luther King Middle,1781 Rose Street,Berkeley,CA,MS,"779",Public
565212.377731523,4190512.25239397,Willard Middle,2425 Stuart Street,Berkeley,CA,MS,"772",Public
563988.207930112,4191459.58332653,Berkeley High,2223 Martin Luther King Jr. Way,Berkeley,CA,HS,"0",Public
564081.123063718,4190501.3503704,Berkeley Technology Academy,2701 Martin Luther King Jr. Way,Berkeley,CA,Small Schools,"0",Public
581004.128472622,4172721.4415377,Castro Valley Elementary,20185 San Miguel Avenue,Castro Valley,CA,ES,"838",Public
580210.36380151,4173707.59560133,Chabot Elementary,19104 Lake Chabot Road,Castro Valley,CA,ES,"898",Public
583806.260124539,4172723.45408952,Independent Elementary,21201 Independent School Road,Castro Valley,CA,ES,"942",Public
585422.176770262,4174415.49912333,Jensen Ranch Elementary,20001 Carson Lane,Castro Valley,CA,ES,"992",Public
582354.822466022,4172763.73885317,Marshall Elementary,20111 Marshall St.,Castro Valley,CA,ES,"842",Public
581651.295335632,4174790.46866437,Proctor Elementary,17520 Redwood Road,Castro Valley,CA,ES,"896",Public
579911.132992079,4172923.34534669,Stanton Elementary,2644 Somerset Avenue,Castro Valley,CA,ES,"853",Public
582975.064022228,4173692.00661096,Vannoy Elementary,5100 Vannoy Ave,Castro Valley,CA,ES,"904",Public
583374.088907305,4173590.24864757,Canyon Middle,19600 Cull Canyon Rd,Castro Valley,CA,MS,"851",Public
582765.386620396,4172938.48367491,Creekside Middle,19722 Center Street,Castro Valley,CA,MS,"875",Public
581247.509694017,4173531.12991181,Castro Valley High,19400 Santa Maria Avenue,Castro Valley,CA,HS,"803",Public
581837.806627398,4173808.38804081,Roy A. Johnson High,4430 Alma Avenue,Castro Valley,CA,HS,"0",Public
586001.378339518,4172465.607203,Palomares Elementary,6395 Palo Verde Road,Castro Valley,CA,Small Schools,"0",Public
579941.751493723,4174346.63534839,Redwood Alternative High,18400 Clifton Way,Castro Valley,CA,ASAM,"0",Public
579941.751493723,4174346.63534839,Redwood Continuation High,18400 Clifton Way,Castro Valley,CA,ASAM,"0",Public
593708.734020963,4174655.10029925,Dublin Elementary,7997 Vomac Rd,Dublin,CA,ES,"870",Public
600105.560276644,4174797.06510167,Eleanor Murray Fallon,3601 Kohnen Wy.,Dublin,CA,ES,"900",Public
594995.328276301,4174730.68199987,Frederiksen Elementary,7243 Tamarack Dr,Dublin,CA,ES,"832",Public
598277.378945663,4174267.13488674,James Dougherty Elementary,5301 Hibernia Dr,Dublin,CA,ES,"944",Public
600552.401736064,4175211.66288022,John Green Elementary,3300 Antone Way,Dublin,CA,ES,"925",Public
594062.73523708,4175452.4907638,Murray Elementary,8435 Davona Dr.,Dublin,CA,ES,"836",Public
595297.365416357,4174250.15900374,Wells Middle,6800 Penn Dr.,Dublin,CA,MS,"795",Public
594628.633577965,4175321.24471445,Dublin High,8151 Village Pkwy,Dublin,CA,HS,"842",Public
595092.930650493,4174103.10041996,Valley High (Continuation),6901 York Dr.,Dublin,CA,ASAM,"0",Public
563418.838338209,4187438.73755356,Anna Yates Elementary,1070 41st Street,Emeryville,CA,ES,"773",Public
563242.445979626,4187837.52301986,Emery Secondary,1100 47th Street,Emeryville,CA,HS,"650",Public
583693.595965291,4158837.64670131,Ardenwood Elementary,33955 Emilia Lane,Fremont,CA,ES,"941",Public
589687.772053562,4155242.98234604,Brier Elementary,39201 Sundale Drive,Fremont,CA,ES,"819",Public
587071.193261824,4158418.36603152,Brookvale Elementary,3400 Nicolet Ave,Fremont,CA,ES,"867",Public
586267.264780316,4156440.13962786,Cabrillo Elementary,36700 San Pedro Drive,Fremont,CA,ES,"799",Public
592655.270009429,4153070.18492738,E. M. Grimmer Elementary,43030 Newport Drive,Fremont,CA,ES,"800",Public
583731.856236124,4157564.73780976,Forest Park Elementary,34400 Maybird Circle,Fremont,CA,ES,"964",Public
594707.45806887,4151682.27058068,Fred E. Weibel Elementary,45135 S. Grimmer Blvd,Fremont,CA,ES,"973",Public
587913.904866756,4155871.64915577,Glenmoor Elementary,4620 Mattos Drive,Fremont,CA,ES,"864",Public
592063.05441103,4152861.03144501,Harvey Green Elementary,42875 Gatewood St,Fremont,CA,ES,"848",Public
591268.405087474,4155519.65405897,J. Haley Durham Elementary,40292 Leslie St,Fremont,CA,ES,"734",Public
595197.132081434,4149391.67566005,James Leitch Elementary,47100 Fernald St,Fremont,CA,ES,"959",Public
590335.914741458,4153951.7422438,John Blacow Elementary,40404 Sundale Drive,Fremont,CA,ES,"775",Public
587314.076944377,4155035.07849297,John G. Mattos Elementary,37944 Farwell Drive,Fremont,CA,ES,"852",Public
592952.811568571,4156455.4118866,John Gomes Elementary,555 Lemos Lane,Fremont,CA,ES,"984",Public
588875.877910485,4154259.31497596,Joseph Azevada Elementary,39450 Royal Palm Drive,Fremont,CA,ES,"806",Public
593645.431576263,4155556.09336912,Joshua Chadbourne Elementary,801 Plymouth Ave,Fremont,CA,ES,"988",Public
595279.444210611,4154074.8114463,Mission San Jose Elementary,43545 Bryant St,Fremont,CA,ES,"993",Public
592999.492213462,4154840.32114436,Mission Valley Elementary,41700 Denise St,Fremont,CA,ES,"956",Public
589652.795763656,4159363.92568779,Niles Elementary,37141 Second St,Fremont,CA,ES,"897",Public
591626.267810402,4153979.84079427,O. N. Hirsch Elementary,41399 Chapel Way,Fremont,CA,ES,"846",Public
586762.391816765,4157489.08971101,Oliveira Elementary,4180 Alder Ave,Fremont,CA,ES,"856",Public
589671.94689665,4157518.01673118,Parkmont Elementary,2601 Parkside Dr,Fremont,CA,ES,"927",Public
585591.898700929,4157678.50999156,Patterson Elementary,35521 Cabrillo Dr,Fremont,CA,ES,"848",Public
590669.180619867,4153053.27381905,Steven Millard Elementary,5200 Valpey Park Dr,Fremont,CA,ES,"890",Public
588535.69282681,4155829.35771689,Tom Maloney Elementary,38700 Logan Dr,Fremont,CA,ES,"827",Public
591834.953738337,4159110.37851047,Vallejo Mill Elementary,38569 Canyon Heights Dr,Fremont,CA,ES,"806",Public
595020.45816192,4148986.5030709,Warm Springs Elementary,47370 Warm Spring Blvd,Fremont,CA,ES,"936",Public
585577.238261684,4159254.02099115,Warwick Elementary,3375 Warwick Rd,Fremont,CA,ES,"872",Public
588159.358332149,4156999.87306148,Centerville Junior High,37720 Fremont Blvd,Fremont,CA,MS,"835",Public
589583.327550583,4154981.40477568,G. M. Walters Junior High,39600 Logan Dr,Fremont,CA,MS,"808",Public
591621.970392726,4154009.7296864,John M. Horner Junior High,41365 Chapel Way,Fremont,CA,MS,"883",Public
587030.593759003,4157138.64462562,Thornton Junior High,4357 Thornton Ave,Fremont,CA,MS,"868",Public
593428.996500197,4156077.55838868,William Hopkins Junior High,600 Driscoll Rd,Fremont,CA,MS,"992",Public
586777.539628802,4157863.45679398,American High,36300 Fremont Blvd,Fremont,CA,HS,"787",Public
589053.655700465,4155022.61056036,Circle of Independent Learning,4700 Calaveras Ave,Fremont,CA,HS,"737",Public
591100.56476234,4153362.3488429,Irvington High,41800 Blacow Ave,Fremont,CA,HS,"830",Public
589842.975004195,4153970.34796192,John F. Kennedy High,39999 Blacow Rd,Fremont,CA,HS,"711",Public
594343.400075592,4155879.33294845,Mission San Jose High,41717 Palm Ave,Fremont,CA,HS,"948",Public
588790.437966752,4156601.45432981,Washington High,38442 Fremont Blvd,Fremont,CA,HS,"776",Public
591549.368116255,4153025.00140032,Vista Alternative,4455 Seneca Park Ave,Fremont,CA,Small Schools,"0",Public
591549.368116255,4153025.00140032,Robertson High (Continuation),4455 Seneca Park Ave,Fremont,CA,ASAM,"0",Public
582734.222706384,4166462.83249331,Bowman Elementary,520 Jefferson Street,Hayward,CA,ES,"759",Public
579716.893898659,4169222.29988038,Burbank Elementary,222 Burbank Street,Hayward,CA,ES,"670",Public
579512.466733524,4170270.10636059,Cherryland Elementary,585 Willow Avenue,Hayward,CA,ES,"721",Public
583347.941593066,4169737.09421833,East Avenue Elementary,2424 East Ave.,Hayward,CA,ES,"768",Public
578767.674642881,4166024.97978929,Eden Gardens Elementary,2184 Thayer Avenue,Hayward,CA,ES,"723",Public
580700.327262529,4165905.88956049,Eldridge Elementary,26825 Eldridge Avenue,Hayward,CA,ES,"772",Public
583565.330410516,4170829.99154528,Fairview Elementary,23515 Maud Avenue,Hayward,CA,ES,"674",Public
581657.535594072,4170308.98121343,Faith Ringgold School of Arts and Scienc,1570 Ward Street,Hayward,CA,ES,"745",Public
581091.64037216,4166383.70869676,Glassbrook Elementary,975 Schafer Road,Hayward,CA,ES,"679",Public
581837.092522377,4167552.58749485,Harder Elementary,495 Wyeth Road,Hayward,CA,ES,"666",Public
578494.062290118,4168350.42939783,Longwood Elementary,850 Longwood Avenue,Hayward,CA,ES,"641",Public
579409.153095678,4164505.35515123,Lorin A. Eden Elementary,27790 Portsmouth Avenue,Hayward,CA,ES,"740",Public
581657.535594072,4170308.98121343,Markham Elementary,1570 Ward Street,Hayward,CA,ES,"671",Public
580709.106538859,4164843.2313426,Palma Ceia Elementary,27679 Melbourne Avenue,Hayward,CA,ES,"772",Public
579908.470983124,4167702.37639452,Park Elementary,411 Larchmont Street,Hayward,CA,ES,"680",Public
581770.307517356,4164835.6806592,Ruus Elementary,28027 Dickens Ave,Hayward,CA,ES,"720",Public
580526.257878446,4166587.74415108,Schafer Park Elementary,26268 Flamingo Avenue,Hayward,CA,ES,"681",Public
579894.16034654,4166143.54753877,Southgate Elementary,26601 Calaroga Avenue,Hayward,CA,ES,"731",Public
586397.447021559,4167951.21410673,Stonebrae Elementary,28761 Hayward Blvd,Hayward,CA,ES,"802",Public
580464.683629276,4171527.68063946,Strobridge Elementary,21400 Bedford Drive,Hayward,CA,ES,"713",Public
585010.66900339,4164545.99363357,Treeview Elementary,30565 Treeview St.,Hayward,CA,ES,"739",Public
581581.12574283,4165992.35844294,Tyrrell Elementary,27000 Tyrrell Avenue,Hayward,CA,ES,"718",Public
578547.703900655,4166125.67157579,Anthony W. Ochoa Middle,2121 Depot Road,Hayward,CA,MS,"718",Public
581228.847082544,4169622.20068385,Bret Harte Middle,1047 E Street,Hayward,CA,MS,"729",Public
582683.043533861,4165946.41293042,Cesar Chavez Middle,27845 Whitman Street,Hayward,CA,MS,"715",Public
580074.971153341,4165663.31921444,"Martin Luther King, Jr., Middle",26890 Holly Hill Ave.,Hayward,CA,MS,"725",Public
580183.066898065,4168511.32345202,Winton Middle,119 Winton Ave.,Hayward,CA,MS,"662",Public
582165.525713472,4169871.94806367,Hayward High,1633 East Ave.,Hayward,CA,HS,"614",Public
583146.57096417,4168701.24663439,Impact Academy of Arts & Technology,2021 Highland Boulevard,Hayward,CA,HS,"721",Public
580499.672940935,4164506.90281712,Leadership Public Schools - Hayward,28000 Calaroga Avenue,Hayward,CA,HS,"777",Public
580255.658497832,4164624.28030333,Mt. Eden High,2300 Panama St.,Hayward,CA,HS,"682",Public
582381.558583787,4166577.06537655,Tennyson High,27035 Whitman Street,Hayward,CA,HS,"607",Public
579469.352071131,4169804.67746032,Brenkwitz High,22100(A) Princeton Street,Hayward,CA,ASAM,"0",Public
612953.830424664,4175785.2605655,Altamont Creek Elementary,6500 Garaventa Ranch Road,Livermore,CA,ES,"870",Public
612118.813010394,4171482.41806407,Arroyo Seco Elementary,5280 Irene Way,Livermore,CA,ES,"848",Public
608382.771017334,4172231.96262303,Don Gaspar De Portola Elementary,2451 Portola Avenue,Livermore,CA,ES,"747",Public
606140.882135739,4169569.17698387,Emma C. Smith Elementary,391 Ontario Drive,Livermore,CA,ES,"901",Public
610881.784998684,4171638.38081177,Jackson Avenue Elementary,554 Jackson Avenue,Livermore,CA,ES,"849",Public
607285.288391375,4169840.42999836,Joe Michell Elementary,1001 Elaine Avenue,Livermore,CA,ES,"821",Public
612078.745014617,4175193.4812726,Leo R. Croce Elementary,5650 Scenic Avenue,Livermore,CA,ES,"867",Public
606985.237337188,4171448.2888197,Marylin Avenue Elementary,800 Marylin Avenue,Livermore,CA,ES,"784",Public
605422.480447365,4171968.11050509,Rancho Las Positas Elementary,401 East Jack London Bl.,Livermore,CA,ES,"858",Public
608173.127970404,4169162.38925493,Sunset Elementary,1671 Frankfurt Way,Livermore,CA,ES,"904",Public
612022.784462677,4176220.6777625,Andrew N. Christensen Middle,5757 Haggin Oaks Avenue,Livermore,CA,MS,"822",Public
610222.256872354,4171016.78374523,East Avenue Middle,3951 East Avenue,Livermore,CA,MS,"819",Public
608718.225277237,4171811.2247228,Junction Avenue Middle,298 Junction Avenue,Livermore,CA,MS,"762",Public
606507.247127046,4169272.49800747,William Mendenhall Middle,170 I EI Padro Drive,Livermore,CA,MS,"858",Public
606733.204400755,4170390.15948692,Granada High,400 Wall Street,Livermore,CA,HS,"830",Public
609194.778173341,4171098.95163088,Livermore High,600 Maple Street,Livermore,CA,HS,"764",Public
606359.788790801,4170189.7417201,Livermore Valley Charter Preparatory High,543 Sonoma Ave.,Livermore,CA,9 to 12,"0",Public
608752.469093043,4170896.51481951,Del Valle Continuation High,2253 Fifth Street,Livermore,CA,ASAM,"0",Public
608752.469093043,4170896.51481951,Phoenix High (Continuation),2253 Fifth Street,Livermore,CA,ASAM,"0",Public
611111.915369951,4170744.26587142,Vineyard Alternative,1401 Almond Avenue,Livermore,CA,ASAM,"0",Public
581495.843347596,4161350.37213208,Alvarado Elementary,31100 Fredi St,Union City,CA,ES,"826",Public
581537.997160179,4160294.03493515,Cabello Student Support Center,4500 Cabello St,Union City,CA,ES,"0",Public
581706.65151635,4158166.22981057,Delaine Eastin Elementary,34901 Eastin Dr,Union City,CA,ES,"879",Public
586868.946789394,4162104.46073936,Guy Jr. Emanuele Elementary,100 Decoto Rd,Union City,CA,ES,"771",Public
585064.555116534,4163521.02879573,Hillview Crest Elementary,31410 Wheelon Av,Union City,CA,ES,"753",Public
581976.487653631,4158751.64976243,Pioneer Elementary,32737 Bel Aire St,Union City,CA,ES,"854",Public
585871.518050082,4161437.45287494,Searles Elementary,33629 15th St,Union City,CA,ES,"760",Public
583885.347746941,4162022.83381911,Tom Kitayama Elementary,1959 Sunsprite Dr,Union City,CA,ES,"840",Public
581187.958037805,4160926.24715615,Alvarado Middle,31604 Alvarado Bl,Union City,CA,MS,"826",Public
584094.926136806,4160772.60960039,Cesar Chavez Middle,2801 Hop Ranch Rd,Union City,CA,MS,"749",Public
585991.507454204,4161045.52704361,James Logan High,1800 H St,Union City,CA,HS,"731",Public
585716.919081033,4163567.18538484,Alternative Learning Academy at Conley-C,541 Blanche St,Union City,CA,Small Schools,"0",Public
585707.215668319,4163557.22722929,Core Learning Academy at Conley-Caraball,541 Blanche St,Union City,CA,ASAM,"0",Public
586060.401532202,4160604.17658329,New Haven Community Day,34200 Alvarado-Niles Rd.,Union City,CA,6 to 12,"0",Public
584273.460821068,4153900.02482075,August Schilling Elementary,36901 Spruce St,Newark,CA,ES,"717",Public
585533.534399857,4155478.57311508,E. L. Musick Elementary,5735 Musick Avenue,Newark,CA,ES,"756",Public
583887.595061702,4155515.67217966,H. A. Snow Elementary,6580 Mirabeau Dr,Newark,CA,ES,"792",Public
584609.86564061,4155047.01019751,James A. Graham Elementary,36270 Cherry Street,Newark,CA,ES,"746",Public
587017.676985449,4154049.05168582,James L. Bunker Elementary,6071 Smith St,Newark,CA,ES,"843",Public
584580.592581438,4156516.58741831,John F. Kennedy Elementary,35430 Blackburn Dr,Newark,CA,ES,"794",Public
583753.217455508,4154736.97108014,Lincoln Elementary,36111 Bettencourt Street,Newark,CA,ES,"798",Public
586370.967016369,4154566.19287264,Louis Milani Elementary,37490 Birch Street,Newark,CA,ES,"771",Public
585078.291243088,4155550.73445545,Newark Junior High,6201 Lafayette Avenue,Newark,CA,MS,"756",Public
588209.481855492,4153251.33213706,Newark Memorial High,39375 Cedar Blvd.,Newark,CA,HS,"723",Public
585542.953610502,4155489.64732672,Crossroads High (Alternative),5715 Musick Avenue,Newark,CA,Small Schools,"0",Public
584877.505353683,4156382.90775882,Bridgepoint High (Continuation),35753 Cedar Boulevard,Newark,CA,ASAM,"0",Public
584906.883760129,4156384.20675383,New Beginnings Academy,35777 Cedar Boulevard,Newark,CA,ASAM,"0",Public
584906.883760129,4156384.20675383,Progressive Academy,35777 Cedar Boulevard,Newark,CA,ASAM,"0",Public
589038.659002807,4153233.2309263,FAME Public Charter,"39899 Balentine Dr., Ste. 335",Newark,CA,K-12,"0",Public
568039.609667043,4181944.46765086,Achieve Academy,1700 28th Avenue,Oakland,CA,ES,"788",Public
571696.591863722,4178714.43059888,ACORN Woodland Elementary,1025 81st Avenue,Oakland,CA,ES,"782",Public
569992.029506264,4182668.32542837,Allendale Elementary,3670 Penniman Avenue,Oakland,CA,ES,"744",Public
568538.31029534,4181022.57884969,ASCEND,3709 East 12th Street,Oakland,CA,ES,"742",Public
567130.673733693,4183951.70606653,Bella Vista Elementary,1025 East 28th Street,Oakland,CA,ES,"811",Public
562989.431235636,4188839.43466421,Berkley Maynard Academy,6200 San Pablo Avenue,Emeryville,CA,ES,"817",Public
569874.694787315,4180350.26329341,Bridges Academy,1325 53rd Avenue,Oakland,CA,ES,"730",Public
571451.81018068,4176698.59695164,Brookfield Elementary,401 Jones Avenue,Oakland,CA,ES,"707",Public
573379.992612601,4181232.9306319,Burckhalter Elementary,3994 Burckhalter Avenue,Oakland,CA,ES,"790",Public
572710.18023379,4183354.47926851,Carl B. Munck Elementary,11900 Campus Drive,Oakland,CA,ES,"798",Public
566564.123360413,4189479.31680075,Chabot Elementary,6686 Chabot Road,Oakland,CA,ES,"932",Public
566548.515546803,4184368.07884445,Cleveland Elementary,745 Cleveland Street,Oakland,CA,ES,"886",Public
571176.73911454,4179643.93684111,Community United Elementary,6701 International Boulevard,Oakland,CA,ES,"577",Public
567975.738517898,4185170.06276336,Crocker Highlands Elementary,525 Midcrest Road,Oakland,CA,ES,"898",Public
562992.146152415,4189103.89023431,East Bay Conservation Corps Charter,1086 Alcatraz Avenue,Oakland,CA,ES,"757",Public
572726.009995078,4179408.99098298,East Oakland Pride Elementary,8000 Birch Street,Oakland,CA,ES,"657",Public
573850.698425345,4178025.95053757,Education for Change at Cox Elementary,9860 Sunnyside Street,Oakland,CA,ES,"665",Public
565344.483404567,4187729.23194091,Emerson Elementary,4803 Lawton Avenue,Oakland,CA,ES,"725",Public
571696.591863722,4178714.43059888,EnCompass Academy Elementary,1025 81st Avenue,Oakland,CA,ES,"733",Public
572809.793355871,4177007.83904613,Esperanza Elementary,10315 E. Street,Oakland,CA,ES,"704",Public
566150.826294487,4183215.32754818,Franklin Elementary,915 Foothill Boulevard,Oakland,CA,ES,"814",Public
572809.793355871,4177007.83904613,Fred T. Korematsu Discovery Academy,10315 E. Street,Oakland,CA,ES,"641",Public
569201.874891059,4183494.87162722,Fruitvale Elementary,3200 Boston Avenue,Oakland,CA,ES,"739",Public
571176.73911454,4179643.93684111,Futures Elementary,6701 International Boulevard,Oakland,CA,ES,"701",Public
567297.625681608,4182416.3491654,Garfield Elementary,1640 22nd Avenue,Oakland,CA,ES,"693",Public
568767.079653561,4184546.98005232,Glenview Elementary,4215 La Cresta Avenue,Oakland,CA,ES,"835",Public
569274.555370015,4181632.4511643,Global Family,2035 40th Avenue,Oakland,CA,ES,"582",Public
577006.224687747,4178761.32486595,Grass Valley Elementary,4720 Dunkirk Avenue,Oakland,CA,ES,"824",Public
570923.460859641,4179985.02124262,Greenleaf Elementary,6328 East 17th Street,Oakland,CA,ES,"777",Public
567497.189683081,4188398.24417097,Hillcrest Elementary,30 Marguerite Drive,Oakland,CA,ES,"957",Public
563769.121084674,4186459.54610448,Hoover Elementary,890 Brockhurst Street,Oakland,CA,ES,"672",Public
570237.504674753,4180998.97382109,Horace Mann Elementary,5222 Ygnacio Avenue,Oakland,CA,ES,"761",Public
574739.886938038,4179758.30671776,Howard Elementary,8755 Fontaine Street,Oakland,CA,ES,"731",Public
569462.141998191,4181178.00216021,Huerta (Dolores) Learning Academy,1941 High Street,Oakland,CA,ES,"597",Public
567792.539834692,4181652.0495152,International Community,2825 International Blvd,Oakland,CA,ES,"746",Public
569274.555370015,4181632.4511643,Jefferson Elementary,2035 40th Ave.,Oakland,CA,ES,"607",Public
570244.84514955,4185984.43810641,Joaquin Miller Elementary,5525 Ascot Drive,Oakland,CA,ES,"886",Public
567570.419717683,4189788.89264276,Kaiser Elementary,25 South Hill Court,Oakland,CA,ES,"864",Public
565387.446043035,4183418.77899061,La Escuelita Elementary,1100 3rd Avenue,Oakland,CA,ES,"813",Public
563393.972048388,4185016.72651888,Lafayette Elementary,1700 Market Street,Oakland,CA,ES,"664",Public
566161.687865217,4185113.36108632,Lakeview Elementary,746 Grand Avenue,Oakland,CA,ES,"760",Public
570752.036108317,4183156.79707312,Laurel Elementary,3750 Brown Avenue,Oakland,CA,ES,"802",Public
567651.548971881,4181268.70676067,Lazear Elementary,824 29th Avenue,Oakland,CA,ES,"709",Public
569274.555370015,4181632.4511643,Learning Without Limits,2035 40th Avenue,Oakland,CA,ES,"718",Public
570793.531128704,4176942.38903102,Lighthouse Community Charter,444 Hegenberger Rd.,Oakland,CA,ES,"763",Public
564512.797158971,4183881.87111932,Lincoln Elementary,225 11th Street,Oakland,CA,ES,"933",Public
568314.072079672,4183037.41420691,Manzanita Community,2409 East 27th Street,Oakland,CA,ES,"672",Public
568314.072079672,4183037.41420691,Manzanita SEED,2409 East 27th Street,Oakland,CA,ES,"736",Public
572333.304257534,4180103.05320233,Markham Elementary,7220 Krause Avenue,Oakland,CA,ES,"713",Public
575634.125694892,4178050.10002573,Marshall Elementary,3400 Malcolm Avenue,Oakland,CA,ES,"720",Public
563120.763817722,4184511.70341634,"Martin Luther King, Jr. Elementary",960 10th Street,Oakland,CA,ES,"0",Public
570707.716369346,4181678.55930196,Maxwell Park Elementary,4730 Fleming Avenue,Oakland,CA,ES,"665",Public
573026.233508055,4179681.07358015,Millsmont Academy,8030 Atherton Street,Oakland,CA,ES,"783",Public
573269.293037186,4177557.74715393,Monarch Academy,1445 101st Ave,Oakland,CA,ES,"774",Public
569264.339042937,4187360.18282157,Montclair Elementary,1757 Mountain Boulevard,Oakland,CA,ES,"957",Public
572327.098097845,4178643.10189638,New Highland Academy,8521 A Street,Oakland,CA,ES,"687",Public
573482.437280376,4180137.16982276,Parker Elementary,7929 Ney Avenue,Oakland,CA,ES,"765",Public
565197.238169419,4189329.64935847,Peralta Elementary,460 63rd Street,Oakland,CA,ES,"892",Public
566113.971359308,4187109.71974978,Piedmont Avenue Elementary,4314 Piedmont Avenue,Oakland,CA,ES,"744",Public
561792.616199736,4184781.02158327,Preparatory Literary Academy of Cultural (PLACE),920 Campbell Street,Oakland,CA,ES,"652",Public
573850.698425345,4178025.95053757,Reach Academy,9860 Sunnyside Street,Oakland,CA,ES,"596",Public
571634.907454291,4183619.46774757,Redwood Heights Elementary,4401 39th Avenue,Oakland,CA,ES,"923",Public
573677.220493886,4179616.01948584,Reems (Ernestine C.) Academy of Technolo,8425 MacArthur Blvd,Oakland,CA,ES,"722",Public
572327.098097845,4178643.10189638,Rise Community,8521A Street,Oakland,CA,ES,"646",Public
563737.075467755,4188142.70011272,Santa Fe Elementary,915 54th Street,Oakland,CA,ES,"686",Public
569428.199548426,4184168.34931272,Sequoia Elementary,3730 Lincoln Avenue,Oakland,CA,ES,"813",Public
572493.39141298,4175949.30184774,Sobrante Park Elementary,470 El Paseo Drive,Oakland,CA,ES,"754",Public
567792.539834692,4181652.0495152,Think College Now,2825 International Boulevard,Oakland,CA,ES,"848",Public
569388.537270328,4187930.02405559,Thornhill Elementary,5880 Thornhill Drive,Oakland,CA,ES,"944",Public
568039.609667043,4181944.46765086,World Academy,1700 28th Ave,Oakland,CA,ES,"759",Public
573470.650672144,4177993.61708875,Alliance Academy,1800 98th Avenue,Oakland,CA,MS,"629",Public
570470.531472719,4183202.28100879,American Indian Public Charter,3637 Magee Ave,Oakland,CA,MS,"977",Public
564681.354572773,4183894.17125482,American Indian Public Charter School II,171 12th Street,Oakland,CA,MS,"933",Public
573026.233508055,4179681.07358015,Aspire Millsmont Secondary Academy,8030 Atherton Street,Oakland,CA,MS,"666",Public
565091.435692245,4187602.49033846,Bay Area Technology,4521 Webster St.,Oakland,CA,MS,"658",Public
569861.318770068,4183979.42360356,Bret Harte Middle,3700 Coolidge Avenue,Oakland,CA,MS,"670",Public
565833.168886995,4188965.50718297,Claremont Middle,5750 College Avenue,Oakland,CA,MS,"703",Public
571050.27262843,4179702.71764103,Coliseum College Prep Academy,1390 66th Avenue,Oakland,CA,MS,"591",Public
567840.973827061,4184327.74161092,Edna Brewer Middle,3748 13th Avenue,Oakland,CA,MS,"822",Public
573470.650672144,4177993.61708875,Elmhurst Community Prep,1800 98th Avenue,Oakland,CA,MS,"647",Public
572439.767292431,4181238.57856442,Explore Middle,3550 64th Avenue,Oakland,CA,MS,"552",Public
572439.767292431,4181238.57856442,Frick Middle,3550 64th Avenue,Oakland,CA,MS,"597",Public
563136.565154772,4184826.15073209,KIPP Bridge Charter,991 14th Street,Oakland,CA,MS,"789",Public
572339.774479118,4175932.98524706,Madison Middle,400 Capistrano Drive,Oakland,CA,MS,"674",Public
571312.264204232,4181559.03644838,Melrose Leadership Academy,5328 Brann Street,Oakland,CA,MS,"658",Public
571312.264204232,4181559.03644838,Montera Middle,5328 Brann Street,Oakland,CA,MS,"814",Public
567987.710909352,4181515.95181939,Oakland Charter Academy,3001 International Blvd,Oakland,CA,MS,"943",Public
567105.639768278,4182749.06837444,Roosevelt Middle,1926 19th Avenue,Oakland,CA,MS,"642",Public
571050.27262843,4179702.71764103,ROOTS International Academy,1390 66th Avenue,Oakland,CA,MS,"575",Public
568962.693768169,4182177.66506274,United for Success Academy,2101 35th Avenue,Oakland,CA,MS,"570",Public
568251.913795526,4181938.24116382,Urban Promise Academy,3031 East 18th Street,Oakland,CA,MS,"694",Public
563136.565154772,4184826.15073209,West Oakland Middle,991 14th Street,Oakland,CA,MS,"698",Public
565101.950253718,4185475.1155352,Westlake Middle,2629 Harrison Street,Oakland,CA,MS,"716",Public
568244.121581525,4181253.6373439,ARISE High,"3301 E. 12th Street, Suite 205",Oakland,CA,HS,"507",Public
573779.715008672,4179405.38456099,Business and Information Technology High,8610 MacArthur Boulevard,Oakland,CA,HS,"527",Public
569614.8645489,4181007.65775412,College Preparatory and Architecture Academy,4610 Foothill Boulevard,Oakland,CA,HS,"582",Public
573779.715008672,4179405.38456099,East Oakland School of the Arts,8610 MacArthur Boulevard,Oakland,CA,HS,"554",Public
563481.722271145,4185853.61352593,"Expression, Excellence, Community, Empow",2607 Myrtle St.,Oakland,CA,HS,"544",Public
573779.715008672,4179405.38456099,Leadership Preparatory High,8610 MacArthur Boulevard,Oakland,CA,HS,"516",Public
568962.693768169,4182177.66506274,LIFE Academy,2101 35th Avenue,Oakland,CA,HS,"659",Public
570793.531128704,4176942.38903102,Lighthouse Community Charter High,444 Hegenberger Rd.,Oakland,CA,HS,"726",Public
573746.409106684,4179409.0787803,LPS College Park,8601 MacArthur Blvd.,Oakland,CA,HS,"554",Public
569614.8645489,4181007.65775412,Mandela High,4610 Foothill Boulevard,Oakland,CA,HS,"557",Public
569614.8645489,4181007.65775412,Media College Preparatory,4610 Foothill Boulevard,Oakland,CA,HS,"600",Public
567192.858671873,4184482.08348811,Oakland High,1023 MacArthur Boulevard,Oakland,CA,HS,"633",Public
564025.054353337,4187137.0913447,"Oakland Military Institute, College Prep",3877 Lusk Street,Oakland,CA,HS,"708",Public
564417.332888842,4184850.05038536,Oakland School for the Arts,1970 Broadway,Oakland,CA,HS,"723",Public
565608.376690534,4187387.06821619,Oakland Technical High,4351 Broadway,Oakland,CA,HS,"643",Public
571739.060321995,4181025.88423426,Oakland Unity High,6038 Brann St.,Oakland,CA,HS,"677",Public
562690.912086522,4185335.64404188,Ralph J. Bunche High,1240 18th Street,Oakland,CA,HS,"402",Public
569614.8645489,4181007.65775412,Robeson School of Visual and Performing,4610 Foothill Boulevard,Oakland,CA,HS,"469",Public
573599.194118797,4183736.58917214,Skyline High,12250 Skyline Boulevard,Oakland,CA,HS,"667",Public
572221.023939067,4176098.58991042,Wilson (Lionel) College Preparatory Acad,400 105th Ave,Oakland,CA,HS,"792",Public
574555.813734821,4180226.64372068,"YES, Youth Empowerment",8251 Fontaine Street,Oakland,CA,HS,"535",Public
574262.75950692,4178551.54353127,Alternative Learning Community,9736 Lawlor St,Oakland,CA,Small Schools,"0",Public
570470.531472719,4183202.28100879,American Indian Public High,3637 Magee Ave,Oakland,CA,Small Schools,"0",Public
563481.722271145,4185853.61352593,"Business, Entrepreneurial School of Tech",2607 Myrtle Street,Oakland,CA,Small Schools,"0",Public
562542.387249461,4184671.9333815,Cole Middle,1011 Union Street,Oakland,CA,Small Schools,"0",Public
571596.371533749,4184044.23041982,Conservatory of Vocal/Instrumental Arts,3800 Mountain Blvd,Oakland,CA,Small Schools,"0",Public
571353.671159056,4180802.00592597,East Oakland Leadership Academy,2614 Seminary Ave,Oakland,CA,Small Schools,"0",Public
571353.671159056,4180802.00592597,East Oakland Leadership Academy,2614 Seminary Ave,Oakland,CA,Small Schools,"0",Public
566073.521470446,4188006.48271529,Far West,5263 Broadway Terrace,Oakland,CA,Small Schools,"0",Public
573392.366694922,4179487.74411139,Hillside Academy,2369 84th Avenue,Oakland,CA,Small Schools,"0",Public
574555.813734821,4180226.64372068,"Independent Study, Sojourner Truth",8251 Fontaine Street,Oakland,CA,Small Schools,"0",Public
571176.73911454,4179643.93684111,Lockwood Elementary,6701 International Boulevard,Oakland,CA,Small Schools,"0",Public
565320.677235857,4183351.39246137,MetWest High,314 East 10th Street,Oakland,CA,Small Schools,"0",Public
563690.429679922,4187523.65969018,North Oakland Community Charter,1000 42nd St.,Oakland,CA,Small Schools,"0",Public
569258.206519365,4176507.25701393,Oakland Aviation High,7850 Earhart Road,Oakland,CA,Small Schools,"0",Public
564681.354572773,4183894.17125482,Oakland Charter High,171 12th Street,Oakland,CA,Small Schools,"0",Public
565091.435692245,4187602.49033846,Oakland International High,4521 Webster Street,Oakland,CA,Small Schools,"0",Public
564636.67672925,4184440.64975111,Oasis High,285 17TH St,Oakland,CA,Small Schools,"0",Public
568962.693768169,4182177.66506274,Peralta Creek Middle,2101 35th Avenue,Oakland,CA,Small Schools,"0",Public
571272.990640865,4179415.2574548,Rudsdale Continuation,1180 70th Avenue,Oakland,CA,Small Schools,"0",Public
564716.379751064,4189099.32998348,Sankofa Academy,581 61st Street,Oakland,CA,Small Schools,"0",Public
571506.163819362,4182579.55355247,Tilden Elementary,4551 Steele Street,Oakland,CA,Small Schools,"0",Public
572726.009995078,4179408.99098298,Webster Academy,8000 Birch Street,Oakland,CA,Small Schools,"0",Public
570923.460859641,4179985.02124262,Whittier Elementary,6328 East 17th Street,Oakland,CA,Small Schools,"0",Public
572366.328435838,4182654.92561565,Community Day,4917 Mountain Boulevard,Oakland,CA,ASAM,"0",Public
565304.2531523,4183524.89071843,Dewey Academy,1111 Second Avenue,Oakland,CA,ASAM,"0",Public
562814.293015423,4183899.66484824,East Bay Conservation Corps Corpsmember,1021 Third Street,Oakland,CA,ASAM,"0",Public
572366.328435838,4182654.92561565,Oakland Community Day Middle,4917 Mountain Boulevard,Oakland,CA,ASAM,"0",Public
564681.931708456,4185835.0253084,Street Academy (Alternative),417 29th Street,Oakland,CA,ASAM,"0",Public
562992.146152415,4189103.89023431,Civicorps Elementary,1086 Alcatraz Ave.,Oakland,CA,K-4,"0",Public
563923.521441727,4185944.84749295,Home and Hospital Program,2850 West St.,Oakland,CA,K-8,"0",Public
574262.75950692,4178551.54353127,Barack Obama Academy,9736 Lawlor St.,Oakland,CA,6 to 8,"0",Public
566266.354615254,4186576.17709007,Beach Elementary,100 Lake Avenue,Piedmont,CA,ES,"971",Public
562679.900237213,4188648.47037207,Havens Elementary,1275 61stÂ  Street,Emeryville,CA,ES,"926",Public
567333.906538016,4186088.18509083,Wildwood Elementary,301 Wildwood Avenue,Piedmont,CA,ES,"964",Public
567458.888877012,4186466.53430242,Piedmont Middle,740 Magnolia Ave,Piedmont,CA,MS,"930",Public
567514.073930479,4186526.6575057,Piedmont High,800 Magnolia Ave,Piedmont,CA,HS,"904",Public
567494.804789558,4186500.17435346,Millennium High Alternative,760 Magnolia Ave,Piedmont,CA,ASAM,"0",Public
599471.373186159,4170053.08652773,Alisal Elementary,1454 Santa Rita Rd,Pleasanton,CA,ES,"886",Public
596370.937870887,4171387.53669264,Donlon Elementary,4150 Dorman Rd,Pleasanton,CA,ES,"924",Public
599294.340395824,4172242.46882705,Fairlands Elementary,4151 W. Las Positas Blvd,Pleasanton,CA,ES,"947",Public
600490.372098957,4172295.85263441,Henry P. Mohr Elementary,3300 Dennis Dr,Pleasanton,CA,ES,"961",Public
595100.592548327,4170957.67551066,Lydiksen Elementary,7700 Highland Oaks Dr,Pleasanton,CA,ES,"903",Public
598406.949309246,4167844.86015441,Phoebe Apperson Hearst Elementary,5301 Case Ave,Pleasanton,CA,ES,"941",Public
600245.075379617,4168654.31616747,Valley View Elementary,480 Adams Way,Pleasanton,CA,ES,"911",Public
601000.846429254,4168225.40697202,Vintage Hills Elementary,1125 Concord St,Pleasanton,CA,ES,"922",Public
598223.136534421,4170159.91171824,Walnut Grove Elementary,1999 Harvest Rd,Pleasanton,CA,ES,"930",Public
598532.308775063,4170507.88431604,Harvest Park Middle,4900 Valley Ave,Pleasanton,CA,MS,"926",Public
598643.0103118,4168342.65430606,Pleasanton Middle,5001 Case Ave,Pleasanton,CA,MS,"933",Public
597150.234548383,4171482.48501426,Thomas S. Hart Middle,4433 Willow Road,Pleasanton,CA,MS,"904",Public
599360.097097084,4169609.65546217,Amador Valley High,1155 Santa Rita Rd,Pleasanton,CA,HS,"877",Public
595220.320766727,4170065.89873696,Foothill High,4375 Foothill Rd,Pleasanton,CA,HS,"889",Public
599231.5340607,4168159.08478632,Pleasanton Community Day,4645 Bernal Ave,Pleasanton,CA,HS,"0",Public
599231.5340607,4168159.08478632,Village High,4645 Bernal Ave,Pleasanton,CA,ASAM,"0",Public
571749.855117605,4173317.40751346,Garfield Elementary,13050 Aurora Drive,San Leandro,CA,ES,"743",Public
574005.286948327,4172360.39557608,James Madison Elementary,14751 Juniper St,San Leandro,CA,ES,"854",Public
576165.842893792,4174269.02233338,Jefferson Elementary,14300 Bancroft Ave,San Leandro,CA,ES,"732",Public
575140.758577732,4174973.11121378,McKinley Elementary,2150 E. 14th St,San Leandro,CA,ES,"746",Public
575275.073596288,4172674.22644258,Monroe Elementary,3750 Monterey Blvd,San Leandro,CA,ES,"760",Public
575178.689327296,4176900.36523923,Roosevelt Elementary,951 Dowling Blvd,San Leandro,CA,ES,"825",Public
574299.719673714,4176471.29517785,Washington Elementary,250 Dutton Ave,San Leandro,CA,ES,"718",Public
573550.300272709,4174569.61275787,Wilson Elementary,1300 Williams Street,San Leandro,CA,ES,"746",Public
575037.013525196,4176095.78072117,Bancroft Middle,1150 Bancroft Ave,San Leandro,CA,MS,"697",Public
573324.664432953,4174447.86119396,John Muir Middle,1444 Williams St,San Leandro,CA,MS,"720",Public
575532.859941793,4174830.00231814,San Leandro High,2200 Bancroft Ave,San Leandro,CA,HS,"680",Public
574060.673864706,4173788.84901681,Lincoln High (Continuation),2600 Teagarden St,San Leandro,CA,ASAM,"0",Public
575266.319815275,4169717.44511639,Bay Elementary,2001 Bockman Rd,San Lorenzo,CA,ES,"799",Public
577923.529730996,4171058.26856026,Colonial Acres Elementary,17115 Meekland Ave,Hayward,CA,ES,"690",Public
574749.921759547,4172493.25257904,Corvallis Elementary,14790 Corvallis Street,San Lorenzo,CA,ES,"792",Public
574354.094714102,4171585.07888078,Dayton Elementary,1500 Dayton Avenue,San Lorenzo,CA,ES,"807",Public
576141.80830664,4169392.17269039,Del Rey Elementary,1510 Via Sonya,San Lorenzo,CA,ES,"729",Public
576287.308351206,4170730.66613109,Grant Elementary,879 Grant Avenue,San Lorenzo,CA,ES,"812",Public
577118.060823352,4172217.23513284,Hesperian Elementary,620 Drew Street,San Lorenzo,CA,ES,"739",Public
577851.927695701,4173119.07892055,Hillside Elementary,15980 Marcella Street,San Lorenzo,CA,ES,"658",Public
577638.31828714,4170098.61685223,Lorenzo Manor Elementary,18250 Bengal Avenue,Hayward,CA,ES,"751",Public
576884.341005683,4169638.53398282,Bohannon Middle,800 Bockman Rd,San Lorenzo,CA,MS,"736",Public
577691.150791651,4172408.21150924,Edendale Middle,16160 Ashland Avenue,San Lorenzo,CA,MS,"651",Public
574965.282469187,4170026.04628045,KIPP Summit Academy,2005 Via Barrett,San Lorenzo,CA,MS,"817",Public
575053.276283773,4171613.38696809,Washington Manor Middle,1170 Fargo Avenue,San Lorenzo,CA,MS,"775",Public
575971.568938726,4170740.73098038,Arroyo High,15701 Lorenzo Blvd,San Lorenzo,CA,HS,"737",Public
574965.282469187,4170026.04628045,KIPP King Collegiate High,2005 Via Barrett,San Lorenzo,CA,HS,"862",Public
577408.50415177,4171431.62477747,San Lorenzo High,50 E. Lewelling Blvd,San Lorenzo,CA,HS,"654",Public
578062.401613392,4169452.99151427,East Bay Arts High,20450 Royal Avenue,Hayward,CA,Small Schools,"0",Public
578062.401613392,4169452.99151427,Royal Sunset (Continuation),20450 Royal Avenue,Hayward,CA,ASAM,"0",Public
606359.788790801,4170189.7417201,Livermore Valley Charter,543 Sonoma Avenue,Livermore,CA,,"866",Public
598458.438463779,4161242.08966405,Sunol Glen Elementary,11601 Main Street,Sunol,CA,ES,"887",Public
591357.97056017,4157778.89463921,California School for the Blind,500 Walnut Ave.,Fremont,CA,Spec School,"0",Public
591374.157757909,4157390.88697091,California School for the Deaf,39350 Gallaudet Dr.,Fremont,CA,Spec School,"0",Public
591167.230353951,4157642.0795726,"Diagnostic Center, Northern California",39100 Gallaudet Dr.,Fremont,CA,Spec School,"0",Public
562717.825713565,4181492.09524446,East Bay Regional Occupation Center/Agency,"1900 Third St., Rm. 23",Alameda,CA,ROC/ROP,"0",Public
579529.921455788,4165649.08391858,Eden Area ROP,26316 Hesperian Blvd,Hayward,CA,ROC/ROP,"0",Public
589809.95718339,4153937.06014249,Mission Valley ROCP,5019 Stevenson Blvd,Fremont,CA,ROC/ROP,"0",Public
604629.118704853,4173242.42484697,Tri-Valley ROP,"2600 Kitty Hawk Rd., Ste. 117",Livermore,CA,ROC/ROP,"0",Public
581794.190221238,4173808.95336971,Alma Preschool,4400 Alma Ave,Castro Valley,CA,Preschool,"0",Public
563204.243903065,4187865.16941038,Emeryville Preschool Students,4727 San Pablo Ave.,Emeryville,CA,Preschool,"0",Public
582012.767845157,4171596.78765553,Special Education-Preschool-Laurel,2652 Vergil Ct.,Castro Valley,CA,Preschool,"0",Public
584844.957108475,4156380.58006346,Whiteford (June) Special Education Preschool,35725 Cedar Blvd.,Newark,CA,Preschool,"0",Public
565235.052090484,4183464.46923733,Infant and Preschool Program,1025 Second Ave.,Oakland,CA,Preschool,"0",Public
578264.505581717,4174325.57438867,Alameda County Juvenile Hall/Court,2500 Fairmont Ave.,San Leandro,CA,Juvenile Court Schools,"0",Public
579632.311972106,4168285.47033821,Alameda County Community,313 West Winton Ave.,Hayward,CA,K-12,"0",Public
566443.297725389,4180039.48038511,Alameda Adult,2250 Central Ave.,Alameda,CA,Adult,"0",Public
562039.098933141,4194696.68756981,Albany Adult,601 San Gabriel Ave.,Albany,CA,Adult,"0",Public
562153.523297746,4192013.27552623,Berkeley Adult,1701 San Pablo Ave.,Berkeley,CA,Adult,"0",Public
581837.806627398,4173808.38804081,Castro Valley Adult and Career Education,4430 Alma Ave.,Castro Valley,CA,Adult,"0",Public
594245.981726306,4174884.7559613,Dublin Adult Education,7471 Larkdale Ave.,Dublin,CA,Adult,"0",Public
589053.655700465,4155022.61056036,Fremont Adult,4700 Calaveras Ave.,Fremont,CA,Adult,"0",Public
579469.352071131,4169804.67746032,Hayward Adult,22100 Princeton St.,Hayward,CA,Adult,"0",Public
611111.915369951,4170744.26587142,Livermore Adult,1401 Almond Ave.,Livermore,CA,Adult,"0",Public
585991.507454204,4161045.52704361,New Haven Adult,1800 H St.,Union City,CA,Adult,"0",Public
584906.883760129,4156384.20675383,Newark Adult,35777 Cedar Blvd.,Newark,CA,Adult,"0",Public
572232.515889188,4180394.54725979,Edward Shands Adult,2455 Church St.,Oakland,CA,Adult,"0",Public
565888.663971108,4183222.20571869,Neighborhood Centers Adult Education,750 International Blvd.,Oakland,CA,Adult,"0",Public
563481.722271145,4185853.61352593,Oakland Adult and Career Education,2607 Myrtle St.,Oakland,CA,Adult,"0",Public
563832.127273399,4188029.68046885,Pleasant Valley Adult,920 53rd St.,Oakland,CA,Adult,"0",Public
567512.777409089,4186528.05825478,Piedmont Adult Education,800 Magnolia Ave.,Piedmont,CA,Adult,"0",Public
599243.22946723,4168374.78300377,Amador Valley Adult and Community Education,215 Abbie St.,Pleasanton,CA,Adult,"0",Public
575597.178136377,4174731.80087048,San Leandro Adult,2255 Bancroft Ave,San Leandro,CA,Adult,"0",Public
576877.215623649,4169637.47020411,San Lorenzo Adult,820 Bockman Rd.,San Lorenzo,CA,Adult,"0",Public
566602.605806476,4180420.9531044,Alameda Christian,2226 Pacific Avenue,Alameda,CA,K-8,"0",private
567091.37048806,4175646.15851537,Chinese American Schools - Alameda,"1501 Harbor Bay Parkway, Suite 200",Alameda,CA,9 to 12,"0",private
566981.333891424,4175825.87653154,Chinese Christian Schoolsâ€“Alameda,1801 North Loop Road,Alameda,CA,K-8,"0",private
566676.494441447,4176867.16728378,Peter Pan Academy,3171 Mecartney Road,Alameda,CA,K-2,"0",private
567660.597326426,4179297.99400966,Rising Star Montessori School,1421 High Street,Alameda,CA,K-5,"0",private
565586.295800171,4180124.41780814,St. Joseph Elementary,1910 San Antonio Avenue,Alameda,CA,K-8,"0",private
565595.76129245,4180029.69589623,St. Joseph Notre Dame High School,1011 Chestnut Street,Alameda,CA,9 to 12,"0",private
567542.087979094,4179161.31208265,St. Philip Neri Elementary,1335 High Street,Alameda,CA,K-8,"0",private
562007.042583937,4193916.10724472,Tilden Preparatory School,1231 Solano Avenue,Albany,CA,6  to 12,"0",private
565543.281434989,4190685.52387514,"Academy, The",2722 Benvenue Avenue,Berkeley,CA,K-8,"0",private
564146.58383029,4189108.83195169,American International Montessori School,3339 Martin Luther King Jr. Way,Berkeley,CA,K-7,"0",private
563817.050448158,4191293.60188314,Berkwood Hedge,1809 Bancroft Way,Berkeley,CA,K-5,"0",private
561890.914930912,4191383.63039545,Black Pine Circle School,2027 Seventh Street,Berkeley,CA,K-8,"0",private
563018.161968113,4192621.58631095,"Crowden School, The",1475 Rose Street,Berkeley,CA,4 to 8,"0",private
562512.354697439,4189868.583823,Ecole Bilingue De Berkeley,1009 Heinz Avenue,Berkeley,CA,K-8,"0",private
564793.727884789,4191430.97631872,Global Montessori International School,2314 Bancroft Way,Berkeley,CA,K-6,"0",private
565685.980568738,4190647.74644342,Maybeck High School,2727 College Avenue,Berkeley,CA,9 to 12,"0",private
564863.132231156,4192258.76383866,Montessori Family School,1850 Scenic Avenue,Berkeley,CA,K,"0",private
562971.284353912,4192957.51060912,Saint Mary's College High School,1294 Albina Avenue,Berkeley,CA,9 to 12,"0",private
564013.431287871,4193296.87029452,School of the Madeleine,1225 Milvia Street,Berkeley,CA,K-8,"0",private
562780.031717821,4191594.94541705,The Berkeley School,1310 University Avenue,Berkeley,CA,K-8,"0",private
563898.503746233,4190991.87916111,Walden Center and School,2446 McKinley Avenue,Berkeley,CA,K-6,"0",private
563251.334015792,4191717.31111244,West-Wind Academy,1551 University Avenue,Berkeley,CA,1 to 12,"0",private
579484.142263219,4172568.82821731,Camelot School,2330 Pomar Vista,Castro Valley,CA,K-5,"0",private
580826.778966549,4173099.90186842,Our Lady of Grace,3427 Somerset Avenue,Castro Valley,CA,K-8,"0",private
581641.209179922,4173565.94799767,Redwood Christianâ€“Redwood Elementary,19300 Redwood Road,Castro Valley,CA,K-5,"0",private
579886.535596335,4174810.12146158,Vita Academy,17524 Kingston Way,Castro Valley,CA,1 to 6,"0",private
599471.413062864,4176221.45122349,"Quarry Lane School, The",6363 Tassjara Road,Dublin,CA,K-12,"0",private
593695.059450331,4175649.89212056,St. Philip Lutheran,8850 Davona Drive,Dublin,CA,K-8,"0",private
593359.24403286,4174574.29851197,St. Raymond,11557 Shannon Avenue,Dublin,CA,K-8,"0",private
592182.335196357,4173476.31760833,Valley Christian Elementary School,7500 Inspiration Drive,Dublin,CA,K-6,"0",private
592182.335196357,4173476.31760833,Valley Christian Junior / Senior High School,7500 Inspiration Drive,Dublin,CA,7 to 12,"0",private
562742.903892587,4188066.19706668,Pacific Rim International School,5521 Doyle Street,Emeryville,CA,K-6,"0",private
595908.620493186,4154441.29941394,Alsion Montessori Middle / High,750 Witherly Lane,Fremont,CA,7 to 12,"0",private
586498.544770326,4158033.17828631,Bethel Christian Academy,36060 Fremont Boulevard,Fremont,CA,K-8,"0",private
592309.232301531,4157458.11447114,Christian Community Schools,39700 Mission Boulevard,Fremont,CA,K-8,"0",private
595435.173419105,4154562.58313529,Dominican Kindergarten,43326 Mission Boulevard,Fremont,CA,K-2,"0",private
586632.930444958,4156420.99588244,Fremont Christian School,4760 Thornton Avenue,Fremont,CA,K-12,"0",private
587988.740576651,4157207.62077973,Holy Spirit Elementary,3930 Parish Avenue,Fremont,CA,K-8,"0",private
593522.968939367,4156270.21519371,Mission Hills Christian School,225 Driscoll Road,Fremont,CA,K-8,"0",private
595341.793972029,4154597.43531468,Montessori School of Fremont,155 Washington Boulevard,Fremont,CA,K-6,"0",private
588943.038079357,4157633.91325093,New Horizons,2550 Peralta Boulevard,Fremont,CA,K-8,"0",private
591124.988452336,4155120.91509704,Our Lady of Guadalupe,40374 Fremont Boulevard,Fremont,CA,K-8,"0",private
583408.772864037,4159674.99367209,Peace Terrace Academy,33330 Peace Terrace,Fremont,CA,K-8,"0",private
588782.192709413,4156555.46281043,Prince of Peace Lutheran,38451 Fremont Boulevard,Fremont,CA,K-8,"0",private
593104.478531269,4153130.08930951,Scholars' Planet,43140 Osgood Road,Fremont,CA,K-6,"0",private
595399.024380638,4154734.8076035,St. Joseph Elementary,43222 Mission Boulevard,Fremont,CA,1 to 8,"0",private
590030.228451286,4153118.1769661,Stratford School,5301 Curtis Street,Fremont,CA,K-6,"0",private
581460.500146586,4169859.98209953,All Saints Catholic School,22870 Second Street,Hayward,CA,K-8,"0",private
576613.834144566,4166558.58214777,"Anchor Education, Inc.",2730 Cavanagh Court,Hayward,CA,6 to 12,"0",private
581070.959975536,4166550.1530222,Bayside Seventh-Day Adventist Christian,26400 Gading Road,Hayward,CA,K-8,"0",private
579854.311130904,4167970.28427492,Grace Academy,380 Elmhurst Street,Hayward,CA,K-3,"0",private
579159.978181128,4165994.79440608,Lea's Christian,26236 Adrian Avenue,Hayward,CA,K-4,"0",private
580897.320257241,4167186.10112737,Montessori Children's House of Hayward,166 West Harder Road,Hayward,CA,K-3,"0",private
582898.323096093,4166637.10992625,Moreau Catholic High School,27170 Mission Boulevard,Hayward,CA,9 to 12,"0",private
580877.994748195,4168106.96141485,Northstar School,24823 Soto Road,Hayward,CA,K-7,"0",private
581217.781733106,4166062.62894813,St. Bede Catholic,26910 Patrick,Hayward,CA,K-8,"0",private
583180.901803217,4166627.97052735,St. Clement Catholic,790 Calhoun Street,Hayward,CA,K-8,"0",private
577920.522111104,4168852.92618194,St. Joachim's Elementary,21250 Hesperian Boulevard,Hayward,CA,K-8,"0",private
611523.731133984,4174317.69269608,Celebration Academy,1135 Bluebell Drive,Livermore,CA,1 to 12,"0",private
609948.764227058,4170169.83216905,Our Savior Lutheran,1385 South Livermore Avenue,Livermore,CA,K-8,"0",private
608267.680058103,4171392.13978717,Sonrise Christian Academy,164 North L Street,Livermore,CA,1 to 12,"0",private
609012.253112814,4171347.03891669,St. Michael Elementary,345 Church Street,Livermore,CA,K-8,"0",private
608679.642961441,4168712.94821311,Sunset Christian School,2200 Arroyo Road,Livermore,CA,K-3,"0",private
610787.655988829,4171027.33798446,Vine and Branches Christian Schools,4303 East Avenue,Livermore,CA,1 to 12,"0",private
585881.392722828,4162553.19949075,Mission Hills Middle School,725 Whipple Road,Union City,CA,1 to 8,"0",private
586029.097055603,4162396.06662485,Our Lady of the Rosary,678 B Street,Union City,CA,K-8,"0",private
586284.023617942,4161854.86388639,Purple Lotus Buddhist School,33615 Ninth Street,Union City,CA,3 to 12,"0",private
585265.158652716,4160871.37743353,Union City Christian School,33700 Alvarado Niles Road,Union City,CA,K-12,"0",private
588573.969656355,4153207.31013838,Challenger - Newark,39600 Cedar Boulevard,Newark,CA,K,"0",private
583742.162021146,4156070.02122308,Challengerâ€“Ardenwood,35487 Dumbarton Court,Newark,CA,K-8,"0",private
585848.292066007,4155160.50310699,St. Edward Parish,5788 Thornton Avenue,Newark,CA,K-8,"0",private
587491.110274515,4154372.34893473,Stellar Academy for Dyslexics,38325 Cedar Boulevard,Newark,CA,2 to 8,"0",private
570655.429218236,4179371.02219633,Acts Christian Academy,1034 66th Avenue,Oakland,CA,K-8,"0",private
567384.988132989,4181998.95647416,Agnes Memorial Christian Academy,2372 International Boulevard,Oakland,CA,K-12,"0",private
567600.673365093,4188324.25406689,Aurora School,40 Dulwich Road,Oakland,CA,K-5,"0",private
566771.690449062,4181743.4956517,Beacon School,2101 Livingston Street,Oakland,CA,K-8,"0",private
567490.934391307,4189640.55346245,Bentley,1 Hiller Drive,Oakland,CA,K-8,"0",private
574326.345712397,4178792.60679959,Bishop O'Dowd High School,9500 Stearns Avenue,Oakland,CA,9 to 12,"0",private
564961.125713096,4186465.88348035,Bridgemount Academy,3612 Webster Street,Oakland,CA,K-5,"0",private
572573.963370369,4180210.94458148,Candell's College Preparatory School,2544-73rd Avenue,Oakland,CA,K-12,"0",private
568049.82362314,4189226.05332377,"College Preparatory, The",6100 Broadway Street,Oakland,CA,9 to 12,"0",private
571332.005403591,4179553.47438852,Dr. Herbert Guice Christian Academy,6925 International Boulevard,Oakland,CA,K-6,"0",private
565370.579349545,4189521.62161317,Escuela BilingÃ¼e Internacional,410 Alcatraz Avenue,Oakland,CA,K-3,"0",private
565965.767603161,4185753.41825942,Grand Lake Montessori,466 Chetwood Street,Oakland,CA,K,"0",private
570350.834170582,4185069.28886912,Growing Light Montessori,4700 Lincoln Avenue,Oakland,CA,K-3,"0",private
570002.120321301,4184833.80793604,Head-Royce School,4315 Lincoln Avenue,Oakland,CA,K-12,"0",private
567634.002169046,4188216.75711258,Holy Names High School,4660 Harbord Drive,Oakland,CA,9 to 12,"0",private
572853.611897389,4178506.04039164,Ile Omode,8924 Holly Street,Oakland,CA,K-8,"0",private
571524.541326009,4182012.91695658,Julia Morgan School For Girls,5000 MacArthur Boulevard,Oakland,CA,6 to 8,"0",private
571524.541326009,4182012.91695658,Mills College Children's School,5000 MacArthur Boulevard,Oakland,CA,K-3,"0",private
570344.718404975,4180873.15847658,Muhammad University of Islam,5277 Foothill Boulevard,Oakland,CA,K-12,"0",private
575232.519569768,4179164.05777113,Northern Light,3710 Dorisa Avenue,Oakland,CA,K-8,"0",private
573043.637514188,4183701.70257506,Oakland Hebrew Day,5500 Redwood Road,Oakland,CA,K-8,"0",private
564856.035126462,4192355.50278839,Pacific Boychoir Academy,2401 Le Conte Avenue,Oakland,CA,4 to 8,"0",private
565258.079082058,4187447.14645666,Park Day,370 43rd Street,Oakland,CA,K-8,"0",private
568744.048644312,4182374.41331746,Patten Academy of Christian Education,2433 Coolidge Avenue,Oakland,CA,K-12,"0",private
561823.232418054,4184498.8576957,Pentecostal Way of Truth School Academy,1575 Seventh Street,Oakland,CA,K-12,"0",private
568560.348635972,4183702.04920681,Redwood Day School,3245 Sheffield Avenue,Oakland,CA,K-8,"0",private
568460.963860659,4181560.78585326,Saint Elizabeth High,1530 34th Avenue,Oakland,CA,9 to 12,"0",private
568946.037374882,4183598.49913572,Saint Jarlath School,2634 Pleasant Street,Oakland,CA,K-8,"0",private
565936.954073393,4187075.36779666,Saint Leo the Great School,4238 Howe Street,Oakland,CA,K-8,"0",private
562824.881693336,4184379.71670258,"Saint Vincent's Day Home, Inc.",1086 Eighth Street,Oakland,CA,K,"0",private
563886.2215099,4185752.96722331,St. Andrew M.B.C. Private P. C. P. C.,2624 West Street,Oakland,CA,K-12,"0",private
566535.276768281,4182773.37663518,St. Anthony School,1500 East 15th Street,Oakland,CA,K-8,"0",private
570857.177649708,4180047.31790218,St. Bernard,1630 62nd Avenue,Oakland,CA,K-8,"0",private
568371.035815796,4181612.92586089,St. Elizabeth Elementary,1516 33rd Avenue,Oakland,CA,K-8,"0",private
571065.920774441,4182662.55712388,St. Lawrence O'Toole Elementary,3695 High Street,Oakland,CA,K-8,"0",private
564306.555748626,4187272.00535647,St. Martin De Porres,675 41st Street,Oakland,CA,K-8,"0",private
565136.250092171,4185142.09865083,St. Paul's Episcopal,116 Montecito Avenue,Oakland,CA,K-8,"0",private
567748.875548148,4187913.35043675,St. Theresa School,4850 Clarewood,Oakland,CA,K-8,"0",private
564592.952930927,4184160.90431647,Starlite School,246 14th Street,Oakland,CA,K,"0",private
569207.677316507,4185455.21295545,Corpus Christi Elementary,One Estates Drive,Piedmont,CA,K-8,"0",private
569415.072899558,4185956.42656171,Zion Lutheran,5201 Park Boulevard,Piedmont,CA,K-8,"0",private
597107.583507449,4172074.76576853,Carden West,4576 Willow Road,Pleasanton,CA,K-6,"0",private
599823.912995308,4172190.97032108,Hacienda School,3800 Stoneridge Drive,Pleasanton,CA,1 to 8,"0",private
597853.091151909,4170194.44241976,Hillview Christian Academy,5492 Greenfield Way,Pleasanton,CA,1 to 12,"0",private
599362.911171531,4168648.6597294,Lighthouse Baptist School,118 Neal Street,Pleasanton,CA,K-12,"0",private
600091.134902601,4170098.48932936,"Quarry Lane, The",3750 Boulder Street,Pleasanton,CA,K,"0",private
576069.627038532,4175075.42093296,Assumption,1851 136th Avenue,San Leandro,CA,K-8,"0",private
577804.378942187,4173098.8145222,International Bible Baptist Academy,15963 Marcella Street,San Leandro,CA,K-12,"0",private
574904.442004539,4174547.86209079,"Principled Academy, The",2305 Washington Avenue,San Leandro,CA,K-8,"0",private
574060.495133247,4175575.04479138,St. Leander,451 Davis Street,San Leandro,CA,K-8,"0",private
577022.610977638,4170036.97588354,Calvary Lutheran Elementary,17200 Via Magdalena,San Lorenzo,CA,K-8,"0",private
575682.597375313,4171521.79357251,Chinese Christian Schoolsâ€“San Leandro,750 Fargo Avenue,San Lorenzo,CA,K-12,"0",private
576280.424037782,4170273.57596464,Redwood Christian Juniorâ€“Senior,1000 Paseo Grande,San Lorenzo,CA,6 to 12,"0",private
574174.287245322,4171847.9560146,St. Felicitas Catholic School,1650 Manor Boulevard,San Lorenzo,CA,K-8,"0",private
577814.519874294,4171433.44341604,St. John Elementary,270 East Lewelling Boulevard,San Lorenzo,CA,K-8,"0",private
